{
  "type": "FeatureCollection",
  "features": [
    {
      "type": "Feature",
      "properties": {
        "norad_id": 28054,
        "name": "DMSP 5D-3 F16 (USA 172)",
        "group": "weather",
        "lat": 20.4902173202424,
        "lon": -162.58848648179512,
        "alt_km": 847.1133265134304,
        "timestamp": "2025-12-22T11:33:20.071576+00:00",
        "meta_object_name": "DMSP 5D-3 F16 (USA 172)",
        "meta_object_id": "2003-048A",
        "meta_epoch": "2025-12-22T04:24:41.086368",
        "meta_mean_motion": 14.14427472,
        "meta_eccentricity": 0.0006264,
        "meta_inclination": 99.0038,
        "meta_ra_of_asc_node": 13.7148,
        "meta_arg_of_pericenter": 290.6515,
        "meta_mean_anomaly": 153.6465,
        "meta_ephemeris_type": 0,
        "meta_classification_type": "U",
        "meta_norad_cat_id": 28054,
        "meta_element_set_no": 999,
        "meta_rev_at_epoch": 14446,
        "meta_bstar": 8.3121e-05,
        "meta_mean_motion_dot": 1.14e-06,
        "meta_mean_motion_ddot": 0,
        "tle_line1": "1 28054U 03048A   25356.18380887  .00000114  00000+0  83121-4 0  9992",
        "tle_line2": "2 28054  99.0038  13.7148 0006264 290.6515 153.6465 14.14427472144465"
      },
      "geometry": {
        "type": "Point",
        "coordinates": [
          -162.58848648179512,
          20.4902173202424
        ]
      }
    },
    {
      "type": "Feature",
      "properties": {
        "norad_id": 28912,
        "name": "METEOSAT-9 (MSG-2)",
        "group": "weather",
        "lat": -8.560677243869684,
        "lon": -51.626969492225534,
        "alt_km": 35422.37038950673,
        "timestamp": "2025-12-22T11:33:20.071625+00:00",
        "meta_object_name": "METEOSAT-9 (MSG-2)",
        "meta_object_id": "2005-049B",
        "meta_epoch": "2025-12-21T18:33:02.923200",
        "meta_mean_motion": 1.00265925,
        "meta_eccentricity": 0.0100454,
        "meta_inclination": 8.9455,
        "meta_ra_of_asc_node": 55.869,
        "meta_arg_of_pericenter": 282.9863,
        "meta_mean_anomaly": 74.5349,
        "meta_ephemeris_type": 0,
        "meta_classification_type": "U",
        "meta_norad_cat_id": 28912,
        "meta_element_set_no": 999,
        "meta_rev_at_epoch": 521,
        "meta_bstar": 0,
        "meta_mean_motion_dot": 1.13e-06,
        "meta_mean_motion_ddot": 0,
        "tle_line1": "1 28912U 05049B   25355.77295050  .00000113  00000+0  00000+0 0  9998",
        "tle_line2": "2 28912   8.9455  55.8690 0100454 282.9863  74.5349  1.00265925  5210"
      },
      "geometry": {
        "type": "Point",
        "coordinates": [
          -51.626969492225534,
          -8.560677243869684
        ]
      }
    },
    {
      "type": "Feature",
      "properties": {
        "norad_id": 29522,
        "name": "DMSP 5D-3 F17 (USA 191)",
        "group": "weather",
        "lat": 62.05129936109396,
        "lon": -161.47964982159945,
        "alt_km": 835.1444084639261,
        "timestamp": "2025-12-22T11:33:20.071643+00:00",
        "meta_object_name": "DMSP 5D-3 F17 (USA 191)",
        "meta_object_id": "2006-050A",
        "meta_epoch": "2025-12-22T02:31:11.913600",
        "meta_mean_motion": 14.14923598,
        "meta_eccentricity": 0.0009801,
        "meta_inclination": 98.739,
        "meta_ra_of_asc_node": 1.2991,
        "meta_arg_of_pericenter": 196.7438,
        "meta_mean_anomaly": 163.3414,
        "meta_ephemeris_type": 0,
        "meta_classification_type": "U",
        "meta_norad_cat_id": 29522,
        "meta_element_set_no": 999,
        "meta_rev_at_epoch": 98737,
        "meta_bstar": 9.4878e-05,
        "meta_mean_motion_dot": 1.4e-06,
        "meta_mean_motion_ddot": 0,
        "tle_line1": "1 29522U 06050A   25356.10499900  .00000140  00000+0  94878-4 0  9998",
        "tle_line2": "2 29522  98.7390   1.2991 0009801 196.7438 163.3414 14.14923598987378"
      },
      "geometry": {
        "type": "Point",
        "coordinates": [
          -161.47964982159945,
          62.05129936109396
        ]
      }
    },
    {
      "type": "Feature",
      "properties": {
        "norad_id": 32958,
        "name": "FENGYUN 3A",
        "group": "weather",
        "lat": -8.349313860195284,
        "lon": -62.913103450502035,
        "alt_km": 829.2724147645158,
        "timestamp": "2025-12-22T11:33:20.071656+00:00",
        "meta_object_name": "FENGYUN 3A",
        "meta_object_id": "2008-026A",
        "meta_epoch": "2025-12-22T03:08:12.860160",
        "meta_mean_motion": 14.19517336,
        "meta_eccentricity": 0.000765,
        "meta_inclination": 98.671,
        "meta_ra_of_asc_node": 295.4602,
        "meta_arg_of_pericenter": 280.0547,
        "meta_mean_anomaly": 79.9766,
        "meta_ephemeris_type": 0,
        "meta_classification_type": "U",
        "meta_norad_cat_id": 32958,
        "meta_element_set_no": 999,
        "meta_rev_at_epoch": 91028,
        "meta_bstar": 6.1416e-05,
        "meta_mean_motion_dot": 8.6e-07,
        "meta_mean_motion_ddot": 0,
        "tle_line1": "1 32958U 08026A   25356.13070440  .00000086  00000+0  61416-4 0  9998",
        "tle_line2": "2 32958  98.6710 295.4602 0007650 280.0547  79.9766 14.19517336910286"
      },
      "geometry": {
        "type": "Point",
        "coordinates": [
          -62.913103450502035,
          -8.349313860195284
        ]
      }
    },
    {
      "type": "Feature",
      "properties": {
        "norad_id": 35491,
        "name": "GOES 14",
        "group": "weather",
        "lat": 1.1136780333001246,
        "lon": 148.70491104511424,
        "alt_km": 35836.25355076008,
        "timestamp": "2025-12-22T11:33:20.071670+00:00",
        "meta_object_name": "GOES 14",
        "meta_object_id": "2009-033A",
        "meta_epoch": "2025-12-22T04:25:04.886112",
        "meta_mean_motion": 1.00096971,
        "meta_eccentricity": 5.42e-05,
        "meta_inclination": 1.2268,
        "meta_ra_of_asc_node": 85.3095,
        "meta_arg_of_pericenter": 186.2033,
        "meta_mean_anomaly": 130.0391,
        "meta_ephemeris_type": 0,
        "meta_classification_type": "U",
        "meta_norad_cat_id": 35491,
        "meta_element_set_no": 999,
        "meta_rev_at_epoch": 481,
        "meta_bstar": 0,
        "meta_mean_motion_dot": 2.6e-07,
        "meta_mean_motion_ddot": 0,
        "tle_line1": "1 35491U 09033A   25356.18408433  .00000026  00000+0  00000+0 0  9995",
        "tle_line2": "2 35491   1.2268  85.3095 0000542 186.2033 130.0391  1.00096971  4810"
      },
      "geometry": {
        "type": "Point",
        "coordinates": [
          148.70491104511424,
          1.1136780333001246
        ]
      }
    },
    {
      "type": "Feature",
      "properties": {
        "norad_id": 35951,
        "name": "DMSP 5D-3 F18 (USA 210)",
        "group": "weather",
        "lat": -20.959571456615247,
        "lon": -23.730963397340215,
        "alt_km": 843.7494838939865,
        "timestamp": "2025-12-22T11:33:20.071689+00:00",
        "meta_object_name": "DMSP 5D-3 F18 (USA 210)",
        "meta_object_id": "2009-057A",
        "meta_epoch": "2025-12-22T03:10:07.962240",
        "meta_mean_motion": 14.14775318,
        "meta_eccentricity": 0.0011804,
        "meta_inclination": 98.8845,
        "meta_ra_of_asc_node": 332.4863,
        "meta_arg_of_pericenter": 37.9587,
        "meta_mean_anomaly": 322.2416,
        "meta_ephemeris_type": 0,
        "meta_classification_type": "U",
        "meta_norad_cat_id": 35951,
        "meta_element_set_no": 999,
        "meta_rev_at_epoch": 83455,
        "meta_bstar": 0.0001701,
        "meta_mean_motion_dot": 2.84e-06,
        "meta_mean_motion_ddot": 0,
        "tle_line1": "1 35951U 09057A   25356.13203660  .00000284  00000+0  17010-3 0  9991",
        "tle_line2": "2 35951  98.8845 332.4863 0011804  37.9587 322.2416 14.14775318834555"
      },
      "geometry": {
        "type": "Point",
        "coordinates": [
          -23.730963397340215,
          -20.959571456615247
        ]
      }
    },
    {
      "type": "Feature",
      "properties": {
        "norad_id": 36411,
        "name": "EWS-G2 (GOES 15)",
        "group": "weather",
        "lat": -0.7405089601371321,
        "lon": -33.97463039568292,
        "alt_km": 35775.42922123093,
        "timestamp": "2025-12-22T11:33:20.071710+00:00",
        "meta_object_name": "EWS-G2 (GOES 15)",
        "meta_object_id": "2010-008A",
        "meta_epoch": "2025-12-22T03:11:05.468352",
        "meta_mean_motion": 1.00271006,
        "meta_eccentricity": 0.000548,
        "meta_inclination": 0.8355,
        "meta_ra_of_asc_node": 86.0788,
        "meta_arg_of_pericenter": 177.9544,
        "meta_mean_anomaly": 296.0414,
        "meta_ephemeris_type": 0,
        "meta_classification_type": "U",
        "meta_norad_cat_id": 36411,
        "meta_element_set_no": 999,
        "meta_rev_at_epoch": 5786,
        "meta_bstar": 0,
        "meta_mean_motion_dot": 6e-07,
        "meta_mean_motion_ddot": 0,
        "tle_line1": "1 36411U 10008A   25356.13270218  .00000060  00000+0  00000+0 0  9993",
        "tle_line2": "2 36411   0.8355  86.0788 0005480 177.9544 296.0414  1.00271006 57868"
      },
      "geometry": {
        "type": "Point",
        "coordinates": [
          -33.97463039568292,
          -0.7405089601371321
        ]
      }
    }
  ]
}